64P/Swift-Gehrels,e,8.9504,300.0014,97.0825,4.454456,0.1048364,0.68771673,78.6266,11/23.0/2020,2000,g  9.5,12.0
# From MPC104795
65P/Gunn,e,9.1815,62.0230,213.8319,3.884920,0.1287155,0.24969842,145.7312,11/23.0/2020,2000,g  5.0,6.0
# From MPC109147
66P/du Toit,e,18.6559,21.8549,257.3326,6.064442,0.0659960,0.78688466,60.6379,11/23.0/2020,2000,g  9.0,4.0
# From MPC 89011
67P/Churyumov-Gerasimenko,e,3.8722,36.4512,22.0390,3.459140,0.1531975,0.65046892,307.3184,11/23.0/2020,2000,g 11.0,4.0
# From MPC 75716
68P/Klemola,e,11.1101,175.0739,153.0977,4.951263,0.0894602,0.63760823,33.9866,11/23.0/2020,2000,g 10.0,4.0
# From MPC114607
69P/Taylor,e,22.0332,104.8291,343.4843,3.888550,0.1285353,0.41304660,79.1516,11/23.0/2020,2000,g  9.5,12.0
# From MPC 92276
70P/Kojima,e,6.5982,119.2679,1.8513,3.675916,0.1398478,0.45348830,311.7263,11/23.0/2020,2000,g 11.0,6.0
# From MPC107051
71P/Clark,e,9.4396,59.4291,209.0311,3.138306,0.1772806,0.49408958,220.0626,11/23.0/2020,2000,g  9.8,6.0
# From MPC 89011
72P/Denning-Fujikawa,e,10.9358,26.6895,346.6773,4.311344,0.1100994,0.81820672,257.0406,11/23.0/2020,2000,g 17.5,10.0
# From MPC106348
73P/Schwassmann-Wachmann,e,11.2316,69.6418,199.4529,3.093065,0.1811843,0.68562756,243.9444,11/23.0/2020,2000,g 11.5,6.0
# From MPC106348
73P-T/Schwassmann-Wachmann,e,11.2337,69.6444,199.4343,3.094626,0.1810472,0.68583043,243.7608,11/23.0/2020,2000,g 11.5,6.0
# From MPEC 2020-M07
74P/Smirnova-Chernykh,e,6.4771,76.1877,95.5241,4.246067,0.1126481,0.15367365,110.6151,11/23.0/2020,2000,g  5.0,6.0
# From MPEC 2020-SI8
76P/West-Kohoutek-Ikemura,e,30.4574,84.1206,359.9907,3.473540,0.1522459,0.53810666,59.9713,11/23.0/2020,2000,g  8.0,12.0
# From MPC100283
77P/Longmore,e,24.3218,14.7914,196.8574,3.621044,0.1430386,0.35223809,236.8050,11/23.0/2020,2000,g  7.0,8.0
# From MPEC 2016-U66
78P/Gehrels,e,6.2497,210.5272,192.6443,3.739506,0.1362959,0.46184252,81.8214,11/23.0/2020,2000,g  9.0,4.0
# From MPC 94675
79P/du Toit-Hartley,e,3.1480,280.5281,281.8144,2.942788,0.1952386,0.61892050,156.5777,11/23.0/2020,2000,g 16.0,4.0
# From MPEC 2014-P41
80P/Peters-Hartley,e,29.9378,259.8206,339.2530,4.024334,0.1220852,0.59896531,268.9634,11/23.0/2020,2000,g  9.0,4.0
# From MPC105241
81P/Wild,e,3.2368,136.1013,41.7009,3.450903,0.1537464,0.53708771,244.2578,11/23.0/2020,2000,g  7.0,6.0
# From MPEC 2020-L06
82P/Gehrels,e,1.1285,239.3102,226.7929,4.136219,0.1171652,0.12171692,103.2490,11/23.0/2020,2000,g  5.0,8.0
# From MPEC 2020-SI8
84P/Giclas,e,7.5522,108.1749,281.5693,3.548475,0.1474489,0.51560304,25.3863,11/23.0/2020,2000,g  9.5,8.0
# From MPC109147
86P/Wild,e,15.4742,72.3677,179.3451,3.603432,0.1440886,0.37255338,296.3954,11/23.0/2020,2000,g 11.0,6.0
# From MPEC 2020-SI8
87P/Bus,e,2.6033,181.8644,24.9696,3.439136,0.1545361,0.38938421,30.5388,11/23.0/2020,2000,g  7.2,10.0
# From MPEC 2019-JE2
88P/Howell,e,4.3836,56.6821,235.9076,3.105717,0.1800782,0.56433025,10.3349,11/23.0/2020,2000,g 11.0,6.0
# From MPC100283
89P/Russell,e,12.0698,41.3989,250.3036,3.753996,0.1355075,0.40865560,194.8655,11/23.0/2020,2000,g 11.5,6.0
# From MPC107051
90P/Gehrels,e,9.6435,13.2092,29.0900,6.054135,0.0661646,0.50981670,82.9031,11/23.0/2020,2000,g  8.5,6.0
# From MPC105241
91P/Russell,e,14.0916,247.8277,354.8055,3.890514,0.1284380,0.33063279,1.7468,11/23.0/2020,2000,g  7.5,6.0
# From MPEC 2014-J58
92P/Sanguin,e,19.4866,181.3783,163.7294,5.345021,0.0797590,0.66068716,166.8200,11/23.0/2020,2000,g 12.0,6.0
# From NK 2707
93P/Lovas,e,12.2026,339.6371,74.8373,4.383781,0.1073818,0.61227704,146.3835,11/23.0/2020,2000,g  9.0,4.0
# From MPEC 2020-W26
94P/Russell,e,6.1878,70.8603,92.4841,3.507165,0.1500617,0.36476353,223.4858,11/23.0/2020,2000,g  9.0,6.0
# From MPC 75717
95P/Chiron,e,6.9352,209.2578,339.7711,13.69298,0.0194517,0.37803279,176.3186,11/23.0/2020,2000,g  6.5,2.0
# From MPEC 2017-T14
96P/Machholz,e,57.7899,94.0753,14.7073,3.027545,0.1870976,0.96161323,210.4013,11/23.0/2020,2000,g  9.0,4.0
# From MPC 77020
97P/Metcalf-Brewington,e,17.9219,184.1340,229.6944,4.774842,0.0944638,0.46123048,317.6138,11/23.0/2020,2000,g  5.5,6.0
# From MPEC 2013-H38
98P/Takamizawa,e,10.5614,114.7113,157.9233,3.798761,0.1331193,0.56222313,354.2846,11/23.0/2020,2000,g  9.0,8.0
# From MPEC 2020-W26
99P/Kowal,e,4.3383,28.1142,174.9453,6.112099,0.0652257,0.23009672,327.0112,11/23.0/2020,2000,g  4.5,6.0
# From MPEC 2013-O31
100P/Hartley,e,25.5681,37.7098,181.9981,3.431990,0.1550191,0.41246892,262.9691,11/23.0/2020,2000,g  9.0,4.0
# From MPC115887
101P/Chernykh,e,5.0528,116.2308,277.6988,5.801049,0.0705414,0.59578999,22.2523,11/23.0/2020,2000,g 12.0,4.8
# From MPC 86232
102P/Shoemaker,e,25.8838,339.3655,20.5368,3.814162,0.1323138,0.45730730,352.0105,11/23.0/2020,2000,g  6.5,8.0
# From MPEC 2018-HA5
103P/Hartley,e,13.5966,219.7281,181.2890,3.476409,0.1520575,0.69303847,199.7092,11/23.0/2020,2000,g  8.5,8.0
# From MPC100283
104P/Kowal,e,5.7187,207.7275,226.8279,3.208726,0.1714767,0.66652602,289.0552,11/23.0/2020,2000,g 16.0,4.0
# From MPC109147
105P/Singer Brewster,e,9.1721,192.4175,46.4774,3.466805,0.1526898,0.40973052,127.6595,11/23.0/2020,2000,g 11.5,6.0
# From MPC 92276
106P/Schuster,e,19.5378,48.9273,353.6169,3.765145,0.1349061,0.59405318,323.7495,11/23.0/2020,2000,g 14.0,4.8
# From MPEC 2015-M77
107P/Wilson-Harrington,e,2.7984,266.8058,95.3845,2.625595,0.2316662,0.63138015,211.7830,11/23.0/2020,2000,g  9.0,4.0
# From MPC 89313
108P/Ciffreo,e,11.4383,50.3515,354.3312,3.742588,0.1361276,0.55644185,320.3916,11/23.0/2020,2000,g  8.0,12.0
# From  105, 420
109P/Swift-Tuttle,e,113.9678,139.0545,152.8899,26.12330,0.0073818,0.96302311,75.4378,11/23.0/2020,2000,g  4.0,6.0
# From MPEC 2020-W26
110P/Hartley,e,11.7073,287.5339,167.4554,3.600729,0.1442508,0.31796578,312.4894,11/23.0/2020,2000,g  1.0,12.0
# From MPC 75718
111P/Helin-Roman-Crockett,e,4.2273,89.7657,1.0672,4.145807,0.1167590,0.10571112,336.0454,11/23.0/2020,2000,g  5.0,8.0
# From MPC118097
112P/Urata-Niijima,e,24.1917,31.8421,21.4961,3.526142,0.1488519,0.58980115,43.0235,11/23.0/2020,2000,g 14.0,6.0
# From MPEC 2015-E14
113P/Spitaler,e,5.3051,306.7152,115.3356,3.704674,0.1382226,0.42345844,283.4847,11/23.0/2020,2000,g 13.5,4.0
# From MPEC 2019-TG9
114P/Wiseman-Skiff,e,18.2723,271.0563,172.7915,3.546325,0.1475830,0.55472359,46.3334,11/23.0/2020,2000,g 11.5,6.0
# From MPEC 2020-SI8
115P/Maury,e,11.6764,176.0098,120.9988,4.274776,0.1115152,0.51884697,12.9705,11/23.0/2020,2000,g 10.5,6.0
# From MPC106348
116P/Wild,e,3.6037,20.9917,173.3676,3.489089,0.1512293,0.37074698,269.1045,11/23.0/2020,2000,g  2.5,10.0
# From MPEC 2015-S97
117P/Helin-Roman-Alu,e,8.7018,58.8490,222.7807,4.085990,0.1193323,0.25576471,289.4786,11/23.0/2020,2000,g  9.0,4.0
# From MPC 95735
118P/Shoemaker-Levy,e,9.9303,142.3123,313.4320,3.380282,0.1585896,0.45751142,245.0874,11/23.0/2020,2000,g 12.0,4.0
# From MPC 84628
119P/Parker-Hartley,e,7.4499,104.8513,321.3499,3.827772,0.1316088,0.39358657,277.9901,11/23.0/2020,2000,g  3.5,8.0
# From MPEC 2020-SI8
120P/Mueller,e,8.4895,358.6742,36.5309,3.962407,0.1249584,0.37462609,339.3760,11/23.0/2020,2000,g 12.0,4.0
# From MPEC 2020-SI8
121P/Shoemaker-Holt,e,20.1633,94.1359,11.2891,4.585844,0.1003633,0.18527194,265.0405,11/23.0/2020,2000,g  6.5,8.0
# From MPC 75718
122P/de Vico,e,84.7625,79.5309,13.0149,17.63012,0.0133144,0.96226739,122.5118,11/23.0/2020,2000,g  7.5,5.2
# From MPC114608
123P/West-Hartley,e,15.3172,46.3579,103.5115,3.869095,0.1295060,0.44829763,85.0059,11/23.0/2020,2000,g  4.0,10.0
# From MPEC 2020-SI8
124P/Mrkos,e,31.5126,0.3658,183.8766,3.318260,0.1630567,0.50345277,34.2555,11/23.0/2020,2000,g 13.5,2.8
# From MPEC 2015-M77
125P/Spacewatch,e,9.9868,153.1566,87.2304,3.125386,0.1783810,0.51293309,145.9711,11/23.0/2020,2000,g  9.0,4.0
# From MPC 66205
126P/IRAS,e,45.8598,357.8540,356.5083,5.641335,0.0735582,0.69613414,289.7933,11/23.0/2020,2000,g  9.0,4.0
# From MPC 84321
127P/Holt-Olmstead,e,14.2976,13.6442,6.5168,3.450059,0.1538028,0.35984572,263.6817,11/23.0/2020,2000,g 11.0,6.0
# From MPC 89014
128P/Shoemaker-Holt,e,4.3665,214.2938,210.3478,4.493264,0.1034811,0.32050537,146.2903,11/23.0/2020,2000,g  8.5,4.0
# From MPEC 2019-TG9
129P/Shoemaker-Levy,e,3.4427,184.8883,308.0186,4.282065,0.1112306,0.08393373,277.5039,11/23.0/2020,2000,g 11.0,4.0
# From MPC 78188
130P/McNaught-Hughes,e,6.0634,70.2386,245.9793,3.383889,0.1583361,0.46132984,163.9779,11/23.0/2020,2000,g 10.0,6.0
# From MPC102101
131P/Mueller,e,7.3540,214.1677,179.0359,3.681237,0.1395447,0.34371552,93.3284,11/23.0/2020,2000,g 11.0,4.0
# From MPEC 2020-HN5
132P/Helin-Roman-Alu,e,5.3788,174.0588,216.3691,3.886658,0.1286292,0.56522169,314.3173,11/23.0/2020,2000,g 11.0,6.0
# From MPC 94676
133P/Elst-Pizarro,e,1.3891,160.1187,131.7645,3.164156,0.1751126,0.15709013,138.9234,11/23.0/2020,2000,g 15.4,2.0
# From MPC 89012
134P/Kowal-Vavrova,e,4.3423,202.0791,18.8797,6.258707,0.0629473,0.58648935,149.7430,11/23.0/2020,2000,g 11.5,4.0
# From MPEC 2015-E14
135P/Shoemaker-Levy,e,6.0614,213.0389,22.2655,3.803940,0.1328475,0.29543782,293.5617,11/23.0/2020,2000,g  9.0,4.0
# From MPEC 2020-W26
136P/Mueller,e,9.4241,137.4459,224.8839,4.194601,0.1147276,0.29242652,187.7164,11/23.0/2020,2000,g 11.0,4.0
# From MPEC 2020-HN5
137P/Shoemaker-Levy,e,4.8534,233.0530,141.0163,4.520560,0.1025453,0.57332771,72.8536,11/23.0/2020,2000,g 11.0,4.0
# From MPEC 2016-U66
138P/Shoemaker-Levy,e,10.0910,309.3317,95.5636,3.622853,0.1429315,0.53032396,81.5032,11/23.0/2020,2000,g 15.0,6.0
# From MPEC 2020-HN5
139P/Vaisala-Oterma,e,2.3335,242.1876,165.7593,4.523930,0.1024307,0.24649243,110.5777,11/23.0/2020,2000,g  9.5,4.0
# From MPEC 2015-E14
140P/Bowell-Skiff,e,3.8299,343.3014,172.9043,6.433450,0.0604002,0.69127611,116.9210,11/23.0/2020,2000,g 11.5,6.0
# From MPC105242
141P/Machholz,e,13.9453,241.8488,153.5450,3.055359,0.1845485,0.73556676,355.8642,11/23.0/2020,2000,g 12.0,12.0
# From MPC 95735
141P-H/Machholz,e,12.8431,246.0900,149.4500,3.008012,0.1889230,0.74682218,359.9270,08/24.0/2015,2000,g 18.5,4.0
# From MPC 71683
